[{"OBJECT_NAME":"TSAT-1A","OBJECT_ID":"2024-066A","EPOCH":"2026-03-09T22:56:57.116832","MEAN_MOTION":15.33219384,"ECCENTRICITY":0.00111833,"INCLINATION":45.6179,"RA_OF_ASC_NODE":302.0275,"ARG_OF_PERICENTER":264.5913,"MEAN_ANOMALY":95.3706,"EPHEMERIS_TYPE":0,"CLASSIFICATION_TYPE":"U","NORAD_CAT_ID":59442,"ELEMENT_SET_NO":999,"REV_AT_EPOCH":10653,"BSTAR":0.00047082724,"MEAN_MOTION_DOT":0.00015138,"MEAN_MOTION_DDOT":0},{"OBJECT_NAME":"STARLINK-36165","OBJECT_ID":"2025-286N","EPOCH":"2026-03-09T05:51:10.298016","MEAN_MOTION":15.30201908,"ECCENTRICITY":8.763e-5,"INCLINATION":53.159,"RA_OF_ASC_NODE":0.8674,"ARG_OF_PERICENTER":101.8207,"MEAN_ANOMALY":258.2893,"EPHEMERIS_TYPE":0,"CLASSIFICATION_TYPE":"U","NORAD_CAT_ID":66937,"ELEMENT_SET_NO":999,"REV_AT_EPOCH":1534,"BSTAR":0.00062807231,"MEAN_MOTION_DOT":0.00018289,"MEAN_MOTION_DDOT":0}]
